STARLINK-36552          
1 67503U 26012L   26043.58335648 -.01785981  00000+0 -36788-1 0  9992
2 67503  43.0002  96.4881 0001299 289.5780 251.1537 15.48606395  5037
STARLINK-36512          
1 67504U 26012M   26043.58335648  .00072523  00000+0  12323-2 0  9991
2 67504  43.0003  96.6037 0001533 302.5595 190.8696 15.50539026  5039
STARLINK-36545          
1 67505U 26012N   26043.58335648  .00052182  00000+0  89035-3 0  9996
2 67505  43.0004  96.5584 0001407 286.1929 225.5487 15.50548420  5037
STARLINK-36553          
1 67506U 26012P   26043.58335648 -.00054912  00000+0 -93622-3 0  9999
2 67506  42.9999  96.4577 0000961 293.9817 258.5716 15.50595928  5032
STARLINK-36521          
1 67507U 26012Q   26043.58335648  .00089214  00000+0  15114-2 0  9990
2 67507  42.9999  96.4470 0001233 292.8972 263.8845 15.50539659  5039
STARLINK-36526          
1 67508U 26012R   26043.58335648  .00033086  00000+0  56776-3 0  9997
2 67508  43.0002  96.4331 0001052 275.0295 286.9561 15.50561585  5037
STARLINK-36541          
1 67509U 26012S   26043.56085671  .00037662  00000+0  64459-3 0  9995
2 67509  43.0009  97.6402 0000521 273.0468  87.0333 15.50584020  3907
STARLINK-36549          
1 67510U 26012T   26043.58335648 -.01879771  00000+0 -35278-1 0  9994
2 67510  43.0002  96.3067 0000606 296.1596 313.5803 15.50850002  4981
STARLINK-36540          
1 67511U 26012U   26043.49478179  .00109093  00000+0  18378-2 0  9995
2 67511  42.9998  98.0023 0001545 283.1830  76.8858 15.50605478  3898
STARLINK-36538          
1 67512U 26012V   26043.58335648 -.01821219  00000+0 -42444-1 0  9993
2 67512  42.9997  96.7252 0001529 286.1148 157.8385 15.44587676  5039
STARLINK-36531          
1 67513U 26012W   26043.58335648 -.01820367  00000+0 -40376-1 0  9999
2 67513  42.9998  96.6392 0001511 295.2850 183.3714 15.46018014  4976
STARLINK-36530          
1 67514U 26012X   26043.58335648 -.01855452  00000+0 -39626-1 0  9999
2 67514  43.0000  96.6772 0001492 290.3416 172.2355 15.47162271  4971
