CCSDS_OMM_VERS = 2.0
CREATION_DATE  = 
ORIGINATOR     = 

OBJECT_NAME    = STARLINK-36552
OBJECT_ID      = 2026-012L
CENTER_NAME    = EARTH
REF_FRAME      = TEME
TIME_SYSTEM    = UTC
MEAN_ELEMENT_THEORY = SGP/SGP4

EPOCH          = 2026-02-12T14:00:01.999872
MEAN_MOTION    = 15.48606395
ECCENTRICITY   = .00012997
INCLINATION    = 43.0002
RA_OF_ASC_NODE = 96.4881
ARG_OF_PERICENTER = 289.5780
MEAN_ANOMALY   = 251.1537

EPHEMERIS_TYPE = 0
CLASSIFICATION_TYPE = U
NORAD_CAT_ID   = 67503
ELEMENT_SET_NO = 999
REV_AT_EPOCH   = 503
BSTAR          = -.36788255E-1
MEAN_MOTION_DOT = -.1785981E-1
MEAN_MOTION_DDOT = 0

CCSDS_OMM_VERS = 2.0
CREATION_DATE  = 
ORIGINATOR     = 

OBJECT_NAME    = STARLINK-36512
OBJECT_ID      = 2026-012M
CENTER_NAME    = EARTH
REF_FRAME      = TEME
TIME_SYSTEM    = UTC
MEAN_ELEMENT_THEORY = SGP/SGP4

EPOCH          = 2026-02-12T14:00:01.999872
MEAN_MOTION    = 15.50539026
ECCENTRICITY   = .00015337
INCLINATION    = 43.0003
RA_OF_ASC_NODE = 96.6037
ARG_OF_PERICENTER = 302.5595
MEAN_ANOMALY   = 190.8696

EPHEMERIS_TYPE = 0
CLASSIFICATION_TYPE = U
NORAD_CAT_ID   = 67504
ELEMENT_SET_NO = 999
REV_AT_EPOCH   = 503
BSTAR          = .12323333E-2
MEAN_MOTION_DOT = .72523E-3
MEAN_MOTION_DDOT = 0

CCSDS_OMM_VERS = 2.0
CREATION_DATE  = 
ORIGINATOR     = 

OBJECT_NAME    = STARLINK-36545
OBJECT_ID      = 2026-012N
CENTER_NAME    = EARTH
REF_FRAME      = TEME
TIME_SYSTEM    = UTC
MEAN_ELEMENT_THEORY = SGP/SGP4

EPOCH          = 2026-02-12T14:00:01.999872
MEAN_MOTION    = 15.50548420
ECCENTRICITY   = .0001407
INCLINATION    = 43.0004
RA_OF_ASC_NODE = 96.5584
ARG_OF_PERICENTER = 286.1929
MEAN_ANOMALY   = 225.5487

EPHEMERIS_TYPE = 0
CLASSIFICATION_TYPE = U
NORAD_CAT_ID   = 67505
ELEMENT_SET_NO = 999
REV_AT_EPOCH   = 503
BSTAR          = .89034845E-3
MEAN_MOTION_DOT = .52182E-3
MEAN_MOTION_DDOT = 0

CCSDS_OMM_VERS = 2.0
CREATION_DATE  = 
ORIGINATOR     = 

OBJECT_NAME    = STARLINK-36553
OBJECT_ID      = 2026-012P
CENTER_NAME    = EARTH
REF_FRAME      = TEME
TIME_SYSTEM    = UTC
MEAN_ELEMENT_THEORY = SGP/SGP4

EPOCH          = 2026-02-12T14:00:01.999872
MEAN_MOTION    = 15.50595928
ECCENTRICITY   = .00009616
INCLINATION    = 42.9999
RA_OF_ASC_NODE = 96.4577
ARG_OF_PERICENTER = 293.9817
MEAN_ANOMALY   = 258.5716

EPHEMERIS_TYPE = 0
CLASSIFICATION_TYPE = U
NORAD_CAT_ID   = 67506
ELEMENT_SET_NO = 999
REV_AT_EPOCH   = 503
BSTAR          = -.93622245E-3
MEAN_MOTION_DOT = -.54912E-3
MEAN_MOTION_DDOT = 0

CCSDS_OMM_VERS = 2.0
CREATION_DATE  = 
ORIGINATOR     = 

OBJECT_NAME    = STARLINK-36521
OBJECT_ID      = 2026-012Q
CENTER_NAME    = EARTH
REF_FRAME      = TEME
TIME_SYSTEM    = UTC
MEAN_ELEMENT_THEORY = SGP/SGP4

EPOCH          = 2026-02-12T14:00:01.999872
MEAN_MOTION    = 15.50539659
ECCENTRICITY   = .00012336
INCLINATION    = 42.9999
RA_OF_ASC_NODE = 96.4470
ARG_OF_PERICENTER = 292.8972
MEAN_ANOMALY   = 263.8845

EPHEMERIS_TYPE = 0
CLASSIFICATION_TYPE = U
NORAD_CAT_ID   = 67507
ELEMENT_SET_NO = 999
REV_AT_EPOCH   = 503
BSTAR          = .15113774E-2
MEAN_MOTION_DOT = .89214E-3
MEAN_MOTION_DDOT = 0

CCSDS_OMM_VERS = 2.0
CREATION_DATE  = 
ORIGINATOR     = 

OBJECT_NAME    = STARLINK-36526
OBJECT_ID      = 2026-012R
CENTER_NAME    = EARTH
REF_FRAME      = TEME
TIME_SYSTEM    = UTC
MEAN_ELEMENT_THEORY = SGP/SGP4

EPOCH          = 2026-02-12T14:00:01.999872
MEAN_MOTION    = 15.50561585
ECCENTRICITY   = .0001052
INCLINATION    = 43.0002
RA_OF_ASC_NODE = 96.4331
ARG_OF_PERICENTER = 275.0295
MEAN_ANOMALY   = 286.9561

EPHEMERIS_TYPE = 0
CLASSIFICATION_TYPE = U
NORAD_CAT_ID   = 67508
ELEMENT_SET_NO = 999
REV_AT_EPOCH   = 503
BSTAR          = .5677597E-3
MEAN_MOTION_DOT = .33086E-3
MEAN_MOTION_DDOT = 0

CCSDS_OMM_VERS = 2.0
CREATION_DATE  = 
ORIGINATOR     = 

OBJECT_NAME    = STARLINK-36541
OBJECT_ID      = 2026-012S
CENTER_NAME    = EARTH
REF_FRAME      = TEME
TIME_SYSTEM    = UTC
MEAN_ELEMENT_THEORY = SGP/SGP4

EPOCH          = 2026-02-12T13:27:38.019744
MEAN_MOTION    = 15.50584020
ECCENTRICITY   = .00005219
INCLINATION    = 43.0009
RA_OF_ASC_NODE = 97.6402
ARG_OF_PERICENTER = 273.0468
MEAN_ANOMALY   = 87.0333

EPHEMERIS_TYPE = 0
CLASSIFICATION_TYPE = U
NORAD_CAT_ID   = 67509
ELEMENT_SET_NO = 999
REV_AT_EPOCH   = 390
BSTAR          = .64459126E-3
MEAN_MOTION_DOT = .37662E-3
MEAN_MOTION_DDOT = 0

CCSDS_OMM_VERS = 2.0
CREATION_DATE  = 
ORIGINATOR     = 

OBJECT_NAME    = STARLINK-36549
OBJECT_ID      = 2026-012T
CENTER_NAME    = EARTH
REF_FRAME      = TEME
TIME_SYSTEM    = UTC
MEAN_ELEMENT_THEORY = SGP/SGP4

EPOCH          = 2026-02-12T14:00:01.999872
MEAN_MOTION    = 15.50850002
ECCENTRICITY   = .00006064
INCLINATION    = 43.0002
RA_OF_ASC_NODE = 96.3067
ARG_OF_PERICENTER = 296.1596
MEAN_ANOMALY   = 313.5803

EPHEMERIS_TYPE = 0
CLASSIFICATION_TYPE = U
NORAD_CAT_ID   = 67510
ELEMENT_SET_NO = 999
REV_AT_EPOCH   = 498
BSTAR          = -.35278098E-1
MEAN_MOTION_DOT = -.1879771E-1
MEAN_MOTION_DDOT = 0

CCSDS_OMM_VERS = 2.0
CREATION_DATE  = 
ORIGINATOR     = 

OBJECT_NAME    = STARLINK-36540
OBJECT_ID      = 2026-012U
CENTER_NAME    = EARTH
REF_FRAME      = TEME
TIME_SYSTEM    = UTC
MEAN_ELEMENT_THEORY = SGP/SGP4

EPOCH          = 2026-02-12T11:52:29.146656
MEAN_MOTION    = 15.50605478
ECCENTRICITY   = .00015455
INCLINATION    = 42.9998
RA_OF_ASC_NODE = 98.0023
ARG_OF_PERICENTER = 283.1830
MEAN_ANOMALY   = 76.8858

EPHEMERIS_TYPE = 0
CLASSIFICATION_TYPE = U
NORAD_CAT_ID   = 67511
ELEMENT_SET_NO = 999
REV_AT_EPOCH   = 389
BSTAR          = .18378345E-2
MEAN_MOTION_DOT = .109093E-2
MEAN_MOTION_DDOT = 0

CCSDS_OMM_VERS = 2.0
CREATION_DATE  = 
ORIGINATOR     = 

OBJECT_NAME    = STARLINK-36538
OBJECT_ID      = 2026-012V
CENTER_NAME    = EARTH
REF_FRAME      = TEME
TIME_SYSTEM    = UTC
MEAN_ELEMENT_THEORY = SGP/SGP4

EPOCH          = 2026-02-12T14:00:01.999872
MEAN_MOTION    = 15.44587676
ECCENTRICITY   = .00015294
INCLINATION    = 42.9997
RA_OF_ASC_NODE = 96.7252
ARG_OF_PERICENTER = 286.1148
MEAN_ANOMALY   = 157.8385

EPHEMERIS_TYPE = 0
CLASSIFICATION_TYPE = U
NORAD_CAT_ID   = 67512
ELEMENT_SET_NO = 999
REV_AT_EPOCH   = 503
BSTAR          = -.42443616E-1
MEAN_MOTION_DOT = -.1821219E-1
MEAN_MOTION_DDOT = 0

CCSDS_OMM_VERS = 2.0
CREATION_DATE  = 
ORIGINATOR     = 

OBJECT_NAME    = STARLINK-36531
OBJECT_ID      = 2026-012W
CENTER_NAME    = EARTH
REF_FRAME      = TEME
TIME_SYSTEM    = UTC
MEAN_ELEMENT_THEORY = SGP/SGP4

EPOCH          = 2026-02-12T14:00:01.999872
MEAN_MOTION    = 15.46018014
ECCENTRICITY   = .00015117
INCLINATION    = 42.9998
RA_OF_ASC_NODE = 96.6392
ARG_OF_PERICENTER = 295.2850
MEAN_ANOMALY   = 183.3714

EPHEMERIS_TYPE = 0
CLASSIFICATION_TYPE = U
NORAD_CAT_ID   = 67513
ELEMENT_SET_NO = 999
REV_AT_EPOCH   = 497
BSTAR          = -.40375685E-1
MEAN_MOTION_DOT = -.1820367E-1
MEAN_MOTION_DDOT = 0

CCSDS_OMM_VERS = 2.0
CREATION_DATE  = 
ORIGINATOR     = 

OBJECT_NAME    = STARLINK-36530
OBJECT_ID      = 2026-012X
CENTER_NAME    = EARTH
REF_FRAME      = TEME
TIME_SYSTEM    = UTC
MEAN_ELEMENT_THEORY = SGP/SGP4

EPOCH          = 2026-02-12T14:00:01.999872
MEAN_MOTION    = 15.47162271
ECCENTRICITY   = .00014926
INCLINATION    = 43.0000
RA_OF_ASC_NODE = 96.6772
ARG_OF_PERICENTER = 290.3416
MEAN_ANOMALY   = 172.2355

EPHEMERIS_TYPE = 0
CLASSIFICATION_TYPE = U
NORAD_CAT_ID   = 67514
ELEMENT_SET_NO = 999
REV_AT_EPOCH   = 497
BSTAR          = -.39625827E-1
MEAN_MOTION_DOT = -.1855452E-1
MEAN_MOTION_DDOT = 0

